{
  "norad_id": 67992,
  "name": "STARLINK-36950",
  "history": [
    {
      "epoch": "2026-03-28T07:15:58.851936Z",
      "apogee_km": 421.30236946238074,
      "perigee_km": 417.4767215225784,
      "latitude_deg": -2.529340942733981e-05,
      "longitude_deg": 9.663802634794218,
      "height_km": 417.64972715386347,
      "semi_major_axis_km": 6797.526545492479,
      "eccentricity": 0.0002814,
      "inclination_deg": 42.9996,
      "raan_deg": 304.3842,
      "arg_perigee_deg": 322.3667,
      "mean_anomaly_deg": 37.6995,
      "mean_motion_rev_day": 15.49089084
    },
    {
      "epoch": "2026-03-30T01:09:50.241024Z",
      "apogee_km": 442.79856201236635,
      "perigee_km": 439.92755248826506,
      "latitude_deg": 1.1945319106840712e-05,
      "longitude_deg": 89.35634781727062,
      "height_km": 440.94072900709074,
      "semi_major_axis_km": 6819.500057250316,
      "eccentricity": 0.0002105,
      "inclination_deg": 42.9984,
      "raan_deg": 294.2615,
      "arg_perigee_deg": 277.9293,
      "mean_anomaly_deg": 82.1325,
      "mean_motion_rev_day": 15.41608002
    },
    {
      "epoch": "2026-03-30T01:09:50.241888Z",
      "apogee_km": 442.79828628266023,
      "perigee_km": 439.92782231980345,
      "latitude_deg": 8.829956790721734e-06,
      "longitude_deg": 89.35634088496901,
      "height_km": 440.9407636826788,
      "semi_major_axis_km": 6819.500054301232,
      "eccentricity": 0.00021046,
      "inclination_deg": 42.9984,
      "raan_deg": 294.2615,
      "arg_perigee_deg": 277.9293,
      "mean_anomaly_deg": 82.1325,
      "mean_motion_rev_day": 15.41608003
    },
    {
      "epoch": "2026-03-30T14:00:03.000384Z",
      "apogee_km": 450.62691947183794,
      "perigee_km": 448.2144702359383,
      "latitude_deg": 43.15110121098629,
      "longitude_deg": -18.100075304638345,
      "height_km": 453.76818858959086,
      "semi_major_axis_km": 6827.557694853887,
      "eccentricity": 0.00017667,
      "inclination_deg": 42.9995,
      "raan_deg": 291.1868,
      "arg_perigee_deg": 270.3745,
      "mean_anomaly_deg": 178.6742,
      "mean_motion_rev_day": 15.38879782
    },
    {
      "epoch": "2026-03-30T22:00:00.999936Z",
      "apogee_km": 454.64037763595843,
      "perigee_km": 452.538801902414,
      "latitude_deg": 27.859303113552322,
      "longitude_deg": -83.34001696010145,
      "height_km": 454.7205021217744,
      "semi_major_axis_km": 6831.726589769186,
      "eccentricity": 0.00015381,
      "inclination_deg": 42.9997,
      "raan_deg": 289.2762,
      "arg_perigee_deg": 284.6729,
      "mean_anomaly_deg": 212.2689,
      "mean_motion_rev_day": 15.37471401
    },
    {
      "epoch": "2026-03-31T20:00:01.999008Z",
      "apogee_km": 465.8263774676134,
      "perigee_km": 464.13202189657204,
      "latitude_deg": 6.535339088559934,
      "longitude_deg": -32.195178028240704,
      "height_km": 464.4474217268258,
      "semi_major_axis_km": 6843.116199682093,
      "eccentricity": 0.0001238,
      "inclination_deg": 42.9992,
      "raan_deg": 284.0358,
      "arg_perigee_deg": 281.5156,
      "mean_anomaly_deg": 248.8636,
      "mean_motion_rev_day": 15.33634572
    },
    {
      "epoch": "2026-04-01T20:00:01.999008Z",
      "apogee_km": 479.81752989740653,
      "perigee_km": 477.36282156849484,
      "latitude_deg": -39.83168275887252,
      "longitude_deg": 85.33812531035882,
      "height_km": 489.4568334775572,
      "semi_major_axis_km": 6856.727175732951,
      "eccentricity": 0.000179,
      "inclination_deg": 42.9998,
      "raan_deg": 278.3524,
      "arg_perigee_deg": 265.225,
      "mean_anomaly_deg": 25.3916,
      "mean_motion_rev_day": 15.29070317
    },
    {
      "epoch": "2026-04-02T20:00:01.999008Z",
      "apogee_km": 479.9234858767004,
      "perigee_km": 477.1657285342835,
      "latitude_deg": 25.79891871050254,
      "longitude_deg": 172.5428585433837,
      "height_km": 479.53945989239406,
      "semi_major_axis_km": 6856.681607205492,
      "eccentricity": 0.0002011,
      "inclination_deg": 43.0004,
      "raan_deg": 272.6963,
      "arg_perigee_deg": 260.909,
      "mean_anomaly_deg": 138.5698,
      "mean_motion_rev_day": 15.2908556
    },
    {
      "epoch": "2026-04-02T22:00:01.999584Z",
      "apogee_km": 480.4643674595991,
      "perigee_km": 477.7065297352219,
      "latitude_deg": 26.884070941806,
      "longitude_deg": -101.77101515087814,
      "height_km": 479.98974093027306,
      "semi_major_axis_km": 6857.22244859741,
      "eccentricity": 0.00020109,
      "inclination_deg": 43.0004,
      "raan_deg": 272.2241,
      "arg_perigee_deg": 263.9721,
      "mean_anomaly_deg": 234.6871,
      "mean_motion_rev_day": 15.28904661
    },
    {
      "epoch": "2026-04-03T20:00:01.999008Z",
      "apogee_km": 484.61554484427506,
      "perigee_km": 481.7392818422013,
      "latitude_deg": 22.30561846044656,
      "longitude_deg": -71.06936581427993,
      "height_km": 483.25055761075885,
      "semi_major_axis_km": 6861.314413343238,
      "eccentricity": 0.0002096,
      "inclination_deg": 43.0006,
      "raan_deg": 267.045,
      "arg_perigee_deg": 257.4025,
      "mean_anomaly_deg": 248.9269,
      "mean_motion_rev_day": 15.27537148
    },
    {
      "epoch": "2026-04-04T20:00:01.999008Z",
      "apogee_km": 484.34661019420946,
      "perigee_km": 481.9986700353629,
      "latitude_deg": -40.627621065443215,
      "longitude_deg": 14.434734117880575,
      "height_km": 494.30536921859374,
      "semi_major_axis_km": 6861.309640114786,
      "eccentricity": 0.0001711,
      "inclination_deg": 43.0012,
      "raan_deg": 261.3971,
      "arg_perigee_deg": 255.3041,
      "mean_anomaly_deg": 356.7809,
      "mean_motion_rev_day": 15.27538742
    },
    {
      "epoch": "2026-04-05T14:00:03.000384Z",
      "apogee_km": 484.3560669595854,
      "perigee_km": 481.8185117684079,
      "latitude_deg": 36.92242261995467,
      "longitude_deg": -93.4801258847072,
      "height_km": 486.1016161745657,
      "semi_major_axis_km": 6861.224289363997,
      "eccentricity": 0.00018492,
      "inclination_deg": 43.0011,
      "raan_deg": 257.1618,
      "arg_perigee_deg": 262.7551,
      "mean_anomaly_deg": 158.6343,
      "mean_motion_rev_day": 15.27567245
    },
    {
      "epoch": "2026-04-05T20:00:38.369088Z",
      "apogee_km": 484.0586962842772,
      "perigee_km": 482.09638892509247,
      "latitude_deg": 1.397092853051399e-05,
      "longitude_deg": 121.45224187540127,
      "height_km": 483.0422227831877,
      "semi_major_axis_km": 6861.2145426046845,
      "eccentricity": 0.000143,
      "inclination_deg": 42.9998,
      "raan_deg": 255.7458,
      "arg_perigee_deg": 258.9517,
      "mean_anomaly_deg": 101.1174,
      "mean_motion_rev_day": 15.275705
    },
    {
      "epoch": "2026-04-06T06:00:02.000160Z",
      "apogee_km": 484.45640187062054,
      "perigee_km": 481.66691294446537,
      "latitude_deg": 30.685808721844904,
      "longitude_deg": 109.58351095464866,
      "height_km": 484.68338034883965,
      "semi_major_axis_km": 6861.198657407543,
      "eccentricity": 0.00020328,
      "inclination_deg": 43.0014,
      "raan_deg": 253.3943,
      "arg_perigee_deg": 263.8524,
      "mean_anomaly_deg": 227.944,
      "mean_motion_rev_day": 15.27575805
    },
    {
      "epoch": "2026-04-07T17:31:09.935904Z",
      "apogee_km": 484.30605330326216,
      "perigee_km": 481.6631492624474,
      "latitude_deg": -1.468452590079668e-07,
      "longitude_deg": 146.24321478661795,
      "height_km": 482.7926988339757,
      "semi_major_axis_km": 6861.1216012828545,
      "eccentricity": 0.0001926,
      "inclination_deg": 43.0023,
      "raan_deg": 245.0373,
      "arg_perigee_deg": 268.6675,
      "mean_anomaly_deg": 91.3956,
      "mean_motion_rev_day": 15.27601539
    },
    {
      "epoch": "2026-04-08T10:46:53.429664Z",
      "apogee_km": 483.80556868279564,
      "perigee_km": 482.22928706453604,
      "latitude_deg": 2.1406801285255607e-05,
      "longitude_deg": -117.46361690522211,
      "height_km": 483.0419820385924,
      "semi_major_axis_km": 6861.154427873666,
      "eccentricity": 0.00011487,
      "inclination_deg": 42.9975,
      "raan_deg": 240.9706,
      "arg_perigee_deg": 251.6263,
      "mean_anomaly_deg": 108.4464,
      "mean_motion_rev_day": 15.27590576
    }
  ]
}